QIANFAN-65              
1 62795U 25016L   26008.61582165  .00000197  00000+0  28696-3 0  9993
2 62795  88.9758 100.2828 0012270 262.0125  97.9633 13.50981621 50870
QIANFAN-66              
1 62796U 25016M   26008.64461841  .00000199  00000+0  28900-3 0  9994
2 62796  88.9778 100.2553 0013447 257.2906 102.6742 13.50986525 50927
QIANFAN-67              
1 62797U 25016N   26008.64878419  .00000204  00000+0  29767-3 0  9997
2 62797  88.9768 100.2778 0013307 265.0084  94.9548 13.50990716 50895
QIANFAN-68              
1 62798U 25016P   26008.64047895  .00000190  00000+0  27541-3 0  9996
2 62798  88.9772 100.3248 0013390 263.0638  96.8990 13.50982576 50874
QIANFAN-69              
1 62799U 25016Q   26008.58286726  .00000188  00000+0  27319-3 0  9998
2 62799  88.9750 100.1944 0014116 264.6828  95.2712 13.50982998 50904
QIANFAN-70              
1 62800U 25016R   26008.59941644  .00000182  00000+0  26309-3 0  9991
2 62800  88.9772 100.3368 0013878 253.7983 106.1641 13.50986735 50869
QIANFAN-71              
1 62801U 25016S   26008.59522174  .00000183  00000+0  26563-3 0  9998
2 62801  88.9766 100.3151 0013989 268.6163  91.3386 13.50986183 50869
QIANFAN-72              
1 62802U 25016T   26008.53760701  .00000187  00000+0  27115-3 0  9991
2 62802  88.9756 100.3318 0017176 277.1792  82.7406 13.50985990 50849
